      2.10          N: GNSS NAV DATA                        RINEX VERSION / TYPE
fic2rin                                 09/17/2022 00:17:04 PGM / RUN BY / DATE
                                                            END OF HEADER
20 22  9 17  0  0  0.0  .485842116177D-03 -.306954461848D-11  .000000000000D+00
     .103000000000D+03 -.536250000000D+02  .464305054455D-08 -.287257741895D+01
    -.266544520855D-05  .476878765039D-02  .828877091408D-05  .515365498734D+04
     .518400000000D+06 -.670552253723D-07  .148623537839D+01 -.149011611938D-07
     .944493968708D+00  .208750000000D+03 -.309681389567D+01 -.805283543292D-08
     .348228790841D-09  .100000000000D+01  .222700000000D+04  .000000000000D+00
     .485000000000D+01  .000000000000D+00 -.838190317154D-08  .103000000000D+03
     .511200000000D+06  .400000000000D+01
4  22  9 17  0  0  0.0 -.117653515190D-03  .568434188608D-11  .000000000000D+00
     .229000000000D+03 -.163125000000D+02  .471162482951D-08 -.207438929779D+01
    -.998377799988D-06  .200742820743D-02  .729039311409D-05  .515374749184D+04
     .518400000000D+06  .000000000000D+00  .272912001334D+01 -.316649675369D-07
     .961997006717D+00  .244250000000D+03 -.308821969960D+01 -.799783314185D-08
     .158220876249D-09  .100000000000D+01  .222700000000D+04  .000000000000D+00
     .240000000000D+01  .000000000000D+00 -.465661287308D-08  .485000000000D+03
     .511650000000D+06  .400000000000D+01
32 22  9 16 23 59 44.0 -.235425308347D-03 -.113686837722D-10  .000000000000D+00
     .500000000000D+01 -.197500000000D+02  .478412784956D-08 -.101956928460D+01
    -.854954123497D-06  .609381892718D-02  .719353556633D-05  .515364333344D+04
     .518384000000D+06  .782310962677D-07  .268656556091D+01  .912696123123D-07
     .958842103919D+00  .238968750000D+03 -.229146126781D+01 -.806855037322D-08
     .188579283656D-09  .100000000000D+01  .222700000000D+04  .000000000000D+00
     .240000000000D+01  .000000000000D+00  .465661287308D-09  .500000000000D+01
     .512010000000D+06  .400000000000D+01
11 22  9 17  0  0  0.0 -.170734710991D-04 -.295585778076D-11  .000000000000D+00
     .105000000000D+03 -.692187500000D+02  .417910264783D-08 -.202681446455D+01
    -.343658030033D-05  .722994212992D-03  .640749931335D-05  .515364037132D+04
     .518400000000D+06 -.223517417908D-07  .653255111040D+00  .577419996262D-07
     .963934608066D+00  .256250000000D+03  .313247514101D+01 -.799176146037D-08
     .107147320259D-10  .100000000000D+01  .222700000000D+04  .000000000000D+00
     .240000000000D+01  .000000000000D+00 -.838190317154D-08  .873000000000D+03
     .512070000000D+06  .400000000000D+01
29 22  9 16 23 59 44.0 -.552152283490D-03 -.318323145621D-11  .000000000000D+00
     .410000000000D+02  .222812500000D+02  .416910223127D-08 -.182486752556D+01
     .106357038021D-05  .222609576304D-02  .414811074734D-05  .515364898872D+04
     .518384000000D+06 -.875443220139D-07 -.371240393664D+00  .000000000000D+00
     .979753362157D+00  .308781250000D+03  .245707144001D+01 -.808033657845D-08
    -.145720355552D-09  .100000000000D+01  .222700000000D+04  .000000000000D+00
     .240000000000D+01  .000000000000D+00 -.102445483208D-07  .410000000000D+02
     .512700000000D+06  .400000000000D+01
31 22  9 17  0  0  0.0 -.193603336811D-03 -.136424205266D-11  .000000000000D+00
     .420000000000D+02  .165625000000D+02  .484484466437D-08  .114213911223D+01
     .112876296043D-05  .105219279649D-01  .873394310474D-05  .515358143425D+04
     .518400000000D+06 -.279396772385D-07 -.251846047702D+01  .121071934700D-06
     .955032596484D+00  .208406250000D+03  .426435470635D+00 -.814069623553D-08
    -.335371112410D-09  .100000000000D+01  .222700000000D+04  .000000000000D+00
     .240000000000D+01  .000000000000D+00 -.135041773319D-07  .420000000000D+02
     .513780000000D+06  .400000000000D+01
20 22  9 16 23 59 44.0  .485843047500D-03 -.306954461848D-11  .000000000000D+00
     .100000000000D+01 -.536250000000D+02  .464305054455D-08 -.287491135992D+01
    -.266544520855D-05  .476878404152D-02  .828877091408D-05  .515365498924D+04
     .518384000000D+06 -.670552253723D-07  .148623553492D+01 -.149011611938D-07
     .944493977485D+00  .208750000000D+03 -.309681375961D+01 -.805283543292D-08
     .348228790841D-09  .100000000000D+01  .222700000000D+04  .000000000000D+00
     .240000000000D+01  .000000000000D+00 -.838190317154D-08  .100000000000D+01
     .514200000000D+06  .400000000000D+01
8  22  9 17  0  0  0.0 -.849203206599D-04 -.159161572810D-11  .000000000000D+00
     .790000000000D+02  .219062500000D+02  .446947188573D-08 -.173551415115D+01
     .121630728245D-05  .750355701894D-02  .416859984398D-05  .515359187889D+04
     .518400000000D+06  .558793544769D-08 -.469846056368D+00 -.670552253723D-07
     .962218982591D+00  .301031250000D+03  .163813449865D+00 -.815533970263D-08
    -.607168148133D-10  .100000000000D+01  .222700000000D+04  .000000000000D+00
     .240000000000D+01  .000000000000D+00  .512227416039D-08  .790000000000D+02
     .515100000000D+06  .400000000000D+01
